{
  "data" : [
    {
      "icon" : "toyPlaceImg",
      "Address":"北京市朝阳区平房街道电影创意产业园1",
      "postCode":"20180703",
      "name" : "开心网分享",
    },
    {
      "icon" : "toyPlaceImg",
      "Address":"北京市朝阳区平房街道电影创意产业园2",
      "postCode":"20180703",
      "name" : "QQ分享",
    },
    {
      "icon" : "toyPlaceImg",
      "Address":"北京市朝阳区平房街道电影创意产业园3",
      "postCode":"20180703",
      "name" : "QQ空间分享",
    },
    {
      "icon" : "toyPlaceImg",
      "Address":"北京市朝阳区平房街道电影创意产业园4",
      "postCode":"20180703",
      "name" : "QQ微博分享",
    },
    {
      "icon" : "toyPlaceImg",
      "Address":"北京市朝阳区平房街道电影创意产业园5",
      "postCode":"20180703",
      "name" : "人人网分享",
    },
    {
      "icon" : "toyPlaceImg",
      "Address":"北京市朝阳区平房街道电影创意产业园6",
      "postCode":"20180703",
      "name" : "微信分享",
    },
    {
      "icon" : "toyPlaceImg",
      "Address":"北京市朝阳区平房街道电影创意产业园7",
      "postCode":"20180703",
      "name" : "微博分享",
    },
    {
      "icon" : "toyPlaceImg",
      "Address":"北京市朝阳区平房街道电影创意产业园8",
      "postCode":"20180703",
      "name" : "朋友圈分享",
    },
    {
      "icon" : "toyPlaceImg",
      "Address":"北京市朝阳区平房街道电影创意产业园9",
      "postCode":"20180703",
      "name" : "短信分享",
    },{
      "icon" : "toyPlaceImg",
      "Address":"北京市朝阳区平房街道电影创意产业园10",
      "postCode":"20180703",
      "name" : "开心网分享",
    },
    {
      "icon" : "toyPlaceImg",
      "Address":"北京市朝阳区平房街道电影创意产业园11",
      "postCode":"20180703",
      "name" : "QQ分享",
    },
    {
      "icon" : "toyPlaceImg",
      "Address":"北京市朝阳区平房街道电影创意产业园12",
      "postCode":"20180703",
      "name" : "QQ空间分享",
    },
    {
      "icon" : "toyPlaceImg",
      "Address":"北京市朝阳区平房街道电影创意产业园13",
      "postCode":"20180703",
      "natitleme" : "QQ微博分享",
    },
  ]
}